[{"OBJECT_NAME":"WORLDVIEW-2 (WV-2)","OBJECT_ID":"2009-055A","EPOCH":"2026-03-09T22:27:15.689664","MEAN_MOTION":14.37910721,"ECCENTRICITY":0.00050548,"INCLINATION":98.4692,"RA_OF_ASC_NODE":143.7977,"ARG_OF_PERICENTER":144.7175,"MEAN_ANOMALY":215.4347,"EPHEMERIS_TYPE":0,"CLASSIFICATION_TYPE":"U","NORAD_CAT_ID":35946,"ELEMENT_SET_NO":999,"REV_AT_EPOCH":86138,"BSTAR":7.9928144e-5,"MEAN_MOTION_DOT":1.98e-6,"MEAN_MOTION_DDOT":0},{"OBJECT_NAME":"IRIDIUM 38","OBJECT_ID":"1997-069E","EPOCH":"2026-03-09T15:48:39.430080","MEAN_MOTION":14.38413336,"ECCENTRICITY":0.00012469,"INCLINATION":86.3947,"RA_OF_ASC_NODE":121.5605,"ARG_OF_PERICENTER":35.9497,"MEAN_ANOMALY":324.1785,"EPHEMERIS_TYPE":0,"CLASSIFICATION_TYPE":"U","NORAD_CAT_ID":25043,"ELEMENT_SET_NO":999,"REV_AT_EPOCH":48411,"BSTAR":0.00014364969,"MEAN_MOTION_DOT":4.58e-6,"MEAN_MOTION_DDOT":0}]
